NORAD_CAT_ID,OBJECT_NAME,OBJECT_TYPE,EPOCH,MEAN_MOTION,ECCENTRICITY,INCLINATION,RA_OF_ASC_NODE,ARG_OF_PERICENTER,MEAN_ANOMALY,BSTAR,MEAN_MOTION_DOT,MEAN_MOTION_DDOT,TLE_LINE0,TLE_LINE1,TLE_LINE2,SEMIMAJOR_AXIS,PERIOD,APOGEE,PERIGEE,DECAYED
55392.0,STARLINK-5085,PAYLOAD,2023-04-03 22:17:53,15.69936099,0.0003082,69.9978,274.6814,288.7742,71.3119,6.7873e-05,7.96e-05,0.0,0 STARLINK-5085,1 55392U 23014B   23093.92909403  .00007960  00000-0  67873-4 0  9994,2 55392  69.9978 274.6814 0003082 288.7742  71.3119 15.69936099  9971,6737.217,91.723,361.158,357.005,0.0
55392.0,STARLINK-5085,PAYLOAD,2023-04-04 21:14:09,15.69930093,0.0005039,69.9979,271.9925,247.4794,112.5869,2.3493e-05,2.614e-05,0.0,0 STARLINK-5085,1 55392U 23014B   23094.88483496  .00002614  00000-0  23493-4 0  9990,2 55392  69.9979 271.9925 0005039 247.4794 112.5869 15.69930093 11069,6737.234,91.724,362.494,355.704,0.0
55392.0,STARLINK-5085,PAYLOAD,2023-04-05 14:03:26,15.69930836,0.0003473,69.9983,270.0231,274.8335,85.2464,3.8756e-06,2.53e-06,0.0,0 STARLINK-5085,1 55392U 23014B   23095.58572633  .00000253  00000-0  38756-5 0  9996,2 55392  69.9983 270.0231 0003473 274.8335  85.2464 15.69930836 11173,6737.232,91.724,361.437,356.757,0.0
55392.0,STARLINK-5085,PAYLOAD,2023-04-05 20:10:27,15.69929766,0.0003514,69.9983,269.3065,274.3272,85.7523,9.8908e-06,9.77e-06,0.0,0 STARLINK-5085,1 55392U 23014B   23095.84059331  .00000977  00000-0  98908-5 0  9998,2 55392  69.9983 269.3065 0003514 274.3272  85.7523 15.69929766 11216,6737.235,91.724,361.467,356.732,0.0
55392.0,STARLINK-5085,PAYLOAD,2023-04-06 11:27:58,15.69920981,0.0003122,69.998,267.5134,262.5479,97.5362,-2.6618e-06,-5.33e-06,0.0,0 STARLINK-5085,1 55392U 23014B   23096.47776458 -.00000533  00000-0 -26618-5 0  9993,2 55392  69.9980 267.5134 0003122 262.5479  97.5362 15.69920981 10371,6737.26,91.724,361.228,357.022,0.0
55392.0,STARLINK-5085,PAYLOAD,2023-04-06 17:34:58,15.69932773,0.000301,70.0,266.7953,259.8976,100.188,1.8583e-05,2.023e-05,0.0,0 STARLINK-5085,1 55392U 23014B   23096.73262596  .00002023  00000-0  18583-4 0  9990,2 55392  70.0000 266.7953 0003010 259.8976 100.1880 15.69932773 10417,6737.226,91.724,361.119,357.063,0.0
55392.0,STARLINK-5085,PAYLOAD,2023-04-07 11:56:00,15.69922238,0.000311,69.9983,264.6474,265.0425,95.0416,4.5654e-06,3.36e-06,0.0,0 STARLINK-5085,1 55392U 23014B   23097.49723176  .00000336  00000-0  45654-5 0  9995,2 55392  69.9983 264.6474 0003110 265.0425  95.0416 15.69922238 10533,6737.256,91.724,361.217,357.026,0.0
55392.0,STARLINK-5085,PAYLOAD,2023-04-07 21:06:31,15.69931316,0.0002973,69.9971,263.5716,269.7482,90.3373,1.6313e-05,1.75e-05,0.0,0 STARLINK-5085,1 55392U 23014B   23097.87952738  .00001750  00000-0  16313-4 0  9995,2 55392  69.9971 263.5716 0002973 269.7482  90.3373 15.69931316 10590,6737.231,91.724,361.098,357.093,0.0
55392.0,STARLINK-5085,PAYLOAD,2023-04-08 10:52:18,15.69915714,0.0003899,70.0011,261.9612,273.1236,86.9514,-1.976e-05,-2.588e-05,0.0,0 STARLINK-5085,1 55392U 23014B   23098.45298640 -.00002588  00000-0 -19760-4 0  9996,2 55392  70.0011 261.9612 0003899 273.1236  86.9514 15.69915714 10681,6737.275,91.725,361.767,356.513,0.0
55392.0,STARLINK-5085,PAYLOAD,2023-04-08 12:24:02,15.69933956,0.0003699,69.9996,261.7805,268.5492,91.528,1.9048e-05,2.079e-05,0.0,0 STARLINK-5085,1 55392U 23014B   23098.51669462  .00002079  00000-0  19048-4 0  9999,2 55392  69.9996 261.7805 0003699 268.5492  91.5280 15.69933956 11638,6737.223,91.724,361.58,356.596,0.0
55392.0,STARLINK-5085,PAYLOAD,2023-04-08 16:59:17,15.69943364,0.0004005,69.9985,261.2428,269.1674,90.9063,3.5935e-05,4.114e-05,0.0,0 STARLINK-5085,1 55392U 23014B   23098.70783840  .00004114  00000-0  35935-4 0  9992,2 55392  69.9985 261.2428 0004005 269.1674  90.9063 15.69943364 10728,6737.196,91.723,361.759,356.363,0.0
55392.0,STARLINK-5085,PAYLOAD,2023-04-09 03:41:34,15.69914736,0.0002726,70.0005,259.99,274.2085,85.8799,-4.0978e-06,-7.05e-06,0.0,0 STARLINK-5085,1 55392U 23014B   23099.15387269 -.00000705  00000-0 -40978-5 0  9995,2 55392  70.0005 259.9900 0002726 274.2085  85.8799 15.69914736 10791,6737.278,91.725,360.98,357.306,0.0
55392.0,STARLINK-5085,PAYLOAD,2023-04-09 11:20:19,15.69919251,0.0003299,69.9992,259.0942,271.4172,88.6646,2.9672e-06,1.44e-06,0.0,0 STARLINK-5085,1 55392U 23014B   23099.47245278  .00000144  00000-0  29672-5 0  9996,2 55392  69.9992 259.0942 0003299 271.4172  88.6646 15.69919251 11781,6737.265,91.724,361.353,356.907,0.0
55392.0,STARLINK-5085,PAYLOAD,2023-04-09 17:27:19,15.69931252,0.0003309,69.9999,258.3783,270.0358,90.0458,2.2966e-05,2.55e-05,0.0,0 STARLINK-5085,1 55392U 23014B   23099.72731380  .00002550  00000-0  22966-4 0  9999,2 55392  69.9999 258.3783 0003309 270.0358  90.0458 15.69931252 10889,6737.231,91.724,361.325,356.866,0.0
55392.0,STARLINK-5085,PAYLOAD,2023-04-10 04:09:36,15.69925142,0.0003417,69.9991,257.1231,274.7424,85.3382,3.3463e-05,3.813e-05,0.0,0 STARLINK-5085,1 55392U 23014B   23100.17333343  .00003813  00000-0  33463-4 0  9995,2 55392  69.9991 257.1231 0003417 274.7424  85.3382 15.69925142 10953,6737.248,91.724,361.415,356.811,0.0
55392.0,STARLINK-5085,PAYLOAD,2023-04-10 10:16:36,15.69926849,0.00034,70.0002,256.4079,279.2022,80.8789,3.1319e-05,3.555e-05,0.0,0 STARLINK-5085,1 55392U 23014B   23100.42820001  .00003555  00000-0  31319-4 0  9996,2 55392  70.0002 256.4079 0003400 279.2022  80.8789 15.69926849 11932,6737.243,91.724,361.399,356.818,0.0
55392.0,STARLINK-5085,PAYLOAD,2023-04-10 16:23:36,15.69938089,0.0004223,70.0017,255.6907,275.8061,84.2653,3.4061e-05,3.887e-05,0.0,0 STARLINK-5085,1 55392U 23014B   23100.68305951  .00003887  00000-0  34061-4 0  9991,2 55392  70.0017 255.6907 0004223 275.8061  84.2653 15.69938089 11036,6737.211,91.723,361.921,356.231,0.0
55392.0,STARLINK-5085,PAYLOAD,2023-04-11 10:44:38,15.6991663,0.0004202,70.0008,253.5415,276.7302,83.3415,-6.6092e-07,-2.93e-06,0.0,0 STARLINK-5085,1 55392U 23014B   23101.44767261 -.00000293  00000-0 -66092-6 0  9993,2 55392  70.0008 253.5415 0004202 276.7302  83.3415 15.69916630 11159,6737.273,91.725,361.969,356.307,0.0
55392.0,STARLINK-5085,PAYLOAD,2023-04-11 12:16:24,15.69916034,0.0003715,70.0009,253.3623,277.9017,82.1756,-3.0106e-06,-5.75e-06,0.0,0 STARLINK-5085,1 55392U 23014B   23101.51139009 -.00000575  00000-0 -30106-5 0  9993,2 55392  70.0009 253.3623 0003715 277.9017  82.1756 15.69916034 12102,6737.274,91.725,361.642,356.636,0.0
55392.0,STARLINK-5085,PAYLOAD,2023-04-12 11:12:40,15.69928816,0.0003354,69.9973,250.6708,258.5214,101.5605,2.0338e-05,2.234e-05,0.0,0 STARLINK-5085,1 55392U 23014B   23102.46713431  .00002234  00000-0  20338-4 0  9992,2 55392  69.9973 250.6708 0003354 258.5214 101.5605 15.69928816 12252,6737.238,91.724,361.362,356.843,0.0
55392.0,STARLINK-5085,PAYLOAD,2023-04-13 10:08:57,15.69928492,0.0003195,69.9989,247.9857,254.5986,105.4857,2.3199e-05,2.578e-05,0.0,0 STARLINK-5085,1 55392U 23014B   23103.42288555  .00002578  00000-0  23199-4 0  9992,2 55392  69.9989 247.9857 0003195 254.5986 105.4857 15.69928492 12407,6737.239,91.724,361.256,356.951,0.0
55392.0,STARLINK-5085,PAYLOAD,2023-04-13 16:15:57,15.69929482,0.0003223,70.0011,247.2711,263.0217,97.0612,3.2473e-05,3.694e-05,0.0,0 STARLINK-5085,1 55392U 23014B   23103.67775340  .00003694  00000-0  32473-4 0  9997,2 55392  70.0011 247.2711 0003223 263.0217  97.0612 15.69929482 11507,6737.236,91.724,361.272,356.929,0.0
55392.0,STARLINK-5085,PAYLOAD,2023-04-14 12:08:44,15.6992163,0.0003486,70.0,244.9418,264.1844,95.8954,1.3952e-06,-4.5e-07,0.0,0 STARLINK-5085,1 55392U 23014B   23104.50607173 -.00000045  00000-0  13952-5 0  9998,2 55392  70.0000 244.9418 0003486 264.1844  95.8954 15.69921630 11638,6737.258,91.724,361.472,356.775,0.0
55392.0,STARLINK-5085,PAYLOAD,2023-04-14 21:19:14,15.69935768,0.0003967,69.9998,243.8669,270.459,89.6151,2.719e-05,3.059e-05,0.0,0 STARLINK-5085,1 55392U 23014B   23104.88836433  .00003059  00000-0  27190-4 0  9997,2 55392  69.9998 243.8669 0003967 270.4590  89.6151 15.69935768 11692,6737.218,91.723,361.755,356.41,0.0
55392.0,STARLINK-5085,PAYLOAD,2023-04-15 12:36:47,15.69909938,0.0004157,69.9997,242.0753,281.6319,78.441,-2.1122e-05,-2.751e-05,0.0,0 STARLINK-5085,1 55392U 23014B   23105.52554627 -.00002751  00000-0 -21122-4 0  9990,2 55392  69.9997 242.0753 0004157 281.6319  78.4410 15.69909938 11796,6737.292,91.725,361.957,356.356,0.0
55392.0,STARLINK-5085,PAYLOAD,2023-04-15 18:43:47,15.69922158,0.0002816,70.0003,241.3598,254.1025,105.9861,8.9501e-06,8.64e-06,0.0,0 STARLINK-5085,1 55392U 23014B   23105.78040649  .00000864  00000-0  89501-5 0  9999,2 55392  70.0003 241.3598 0002816 254.1025 105.9861 15.69922158 11835,6737.257,91.724,361.019,357.224,0.0
55392.0,STARLINK-5085,PAYLOAD,2023-04-16 11:33:03,15.69921237,0.0003239,69.9999,239.3891,258.8407,101.2424,1.7269e-05,1.864e-05,0.0,0 STARLINK-5085,1 55392U 23014B   23106.48129194  .00001864  00000-0  17269-4 0  9992,2 55392  69.9999 239.3891 0003239 258.8407 101.2424 15.69921237 12881,6737.259,91.724,361.307,356.942,0.0
55392.0,STARLINK-5085,PAYLOAD,2023-04-16 17:40:03,15.69934565,0.0003232,69.9985,238.6695,253.0309,107.0533,2.1439e-05,2.367e-05,0.0,0 STARLINK-5085,1 55392U 23014B   23106.73615123  .00002367  00000-0  21439-4 0  9995,2 55392  69.9985 238.6695 0003232 253.0309 107.0533 15.69934565 12929,6737.221,91.724,361.264,356.909,0.0
55392.0,STARLINK-5085,PAYLOAD,2023-04-17 12:01:05,15.69919863,0.0002867,70.0003,236.5209,249.4573,110.6316,2.7881e-05,3.14e-05,0.0,0 STARLINK-5085,1 55392U 23014B   23107.50075980  .00003140  00000-0  27881-4 0  9999,2 55392  70.0003 236.5209 0002867 249.4573 110.6316 15.69919863 12109,6737.263,91.724,361.06,357.197,0.0
55392.0,STARLINK-5085,PAYLOAD,2023-04-17 18:08:06,15.69922405,0.0003023,70.0002,235.8045,260.3493,99.7361,2.5681e-05,2.876e-05,0.0,0 STARLINK-5085,1 55392U 23014B   23107.75562645  .00002876  00000-0  25681-4 0  9996,2 55392  70.0002 235.8045 0003023 260.3493  99.7361 15.69922405 13087,6737.256,91.724,361.158,357.084,0.0
